*******************************************************************************
Ephemeris / WWW_USER Mon Mar 10 08:33:33 2025 Pasadena, USA      / Horizons    
*******************************************************************************
Target body name: 341764 (2007 VZ326)             {source: JPL#18}
Center body name: Earth (399)                     {source: DE441}
Center-site name: Mauna Kea
*******************************************************************************
Start time      : A.D. 2018-Aug-22 04:55:00.0000 UT      
Stop  time      : A.D. 2018-Aug-22 15:54:00.0000 UT      
Step-size       : 1 minutes
*******************************************************************************
Target pole/equ : undefined
Target radii    : undefined                                                    
Center geodetic : 204.5278, 19.8260847, 4.21024   {E-lon(deg),Lat(deg),Alt(km)}
Center cylindric: 204.5278, 6006.35451, 2151.0229 {E-lon(deg),Dxy(km),Dz(km)}
Center pole/equ : ITRF93                          {East-longitude positive}
Center radii    : 6378.137, 6378.137, 6356.752 km {Equator_a, b, pole_c}       
Target primary  : Sun
Vis. interferer : MOON (R_eq= 1737.400) km        {source: DE441}
Rel. light bend : Sun                             {source: DE441}
Rel. lght bnd GM: 1.3271E+11 km^3/s^2                                          
Small-body perts: Yes                             {source: SB441-N16}
Atmos refraction: NO (AIRLESS)
RA format       : HMS
Time format     : CAL 
Calendar mode   : Mixed Julian/Gregorian
RTS-only print  : NO       
EOP file        : eop.250307.p250603                                           
EOP coverage    : DATA-BASED 1962-JAN-20 TO 2025-MAR-07. PREDICTS-> 2025-JUN-02
Units conversion: 1 au= 149597870.700 km, c= 299792.458 km/s, 1 day= 86400.0 s 
Table cut-offs 1: Elevation (-90.0deg=NO ),Airmass (>38.000=NO), Daylight (YES)
Table cut-offs 2: Solar elongation (  0.0,180.0=NO ),Local Hour Angle( 0.0=NO )
Table cut-offs 3: RA/DEC angular rate (     0.0=NO )                           
*******************************************************************************
Initial IAU76/J2000 heliocentric ecliptic osculating elements (au, days, deg.):
  EPOCH=  2458738.5 ! 2019-Sep-12.00 (TDB)         Residual RMS= .13886        
   EC= .1008373990761695   QR= 2.768240023430626   TP= 2458584.3440952813      
   OM= 228.7009686323446   W=  245.4004729743531   IN= 4.232471987434818       
  Equivalent ICRF heliocentric cartesian coordinates (au, au/d):
   X=-2.388613100272569E+00  Y= 1.431394755664809E+00  Z= 3.975078424350988E-01
  VX=-6.081658482309184E-03 VY=-8.102092841560219E-03 VZ=-3.413222734767960E-03
Asteroid physical parameters (km, seconds, rotational period in hours):        
   GM= n.a.                RAD= n.a.               ROTPER= n.a.                
   H= 16.54                G= .150                 B-V= n.a.                   
                           ALBEDO= n.a.            STYP= n.a.                  
*******************************************************************************
 Date__(UT)__HR:MN     R.A._________(ICRF)_________DEC
******************************************************
$$SOE
 2018-Aug-22 15:10 A   05 26 44.669960 +22 13 41.78647
 2018-Aug-22 15:11 A   05 26 44.724580 +22 13 41.78913
 2018-Aug-22 15:12 A   05 26 44.779197 +22 13 41.79177
 2018-Aug-22 15:13 A   05 26 44.833811 +22 13 41.79440
 2018-Aug-22 15:14 A   05 26 44.888423 +22 13 41.79700
 2018-Aug-22 15:15 N   05 26 44.943032 +22 13 41.79959
 2018-Aug-22 15:16 N   05 26 44.997639 +22 13 41.80217
 2018-Aug-22 15:17 N   05 26 45.052243 +22 13 41.80472
 2018-Aug-22 15:18 N   05 26 45.106845 +22 13 41.80726
 2018-Aug-22 15:19 N   05 26 45.161444 +22 13 41.80979
 2018-Aug-22 15:20 N   05 26 45.216041 +22 13 41.81229
 2018-Aug-22 15:21 N   05 26 45.270636 +22 13 41.81478
 2018-Aug-22 15:22 N   05 26 45.325228 +22 13 41.81725
 2018-Aug-22 15:23 N   05 26 45.379817 +22 13 41.81970
 2018-Aug-22 15:24 N   05 26 45.434405 +22 13 41.82214
 2018-Aug-22 15:25 N   05 26 45.488989 +22 13 41.82456
 2018-Aug-22 15:26 N   05 26 45.543572 +22 13 41.82696
 2018-Aug-22 15:27 N   05 26 45.598152 +22 13 41.82934
 2018-Aug-22 15:28 N   05 26 45.652730 +22 13 41.83171
 2018-Aug-22 15:29 N   05 26 45.707305 +22 13 41.83406
 2018-Aug-22 15:30 N   05 26 45.761878 +22 13 41.83639
 2018-Aug-22 15:31 N   05 26 45.816449 +22 13 41.83870
 2018-Aug-22 15:32 N   05 26 45.871017 +22 13 41.84100
 2018-Aug-22 15:33 N   05 26 45.925583 +22 13 41.84327
 2018-Aug-22 15:34 N   05 26 45.980147 +22 13 41.84553
 2018-Aug-22 15:35 N   05 26 46.034708 +22 13 41.84778
 2018-Aug-22 15:36 N   05 26 46.089268 +22 13 41.85000
 2018-Aug-22 15:37 N   05 26 46.143825 +22 13 41.85221
 2018-Aug-22 15:38 N   05 26 46.198380 +22 13 41.85439
 2018-Aug-22 15:39 N   05 26 46.252932 +22 13 41.85656
 2018-Aug-22 15:40 N   05 26 46.307483 +22 13 41.85872
 2018-Aug-22 15:41 N   05 26 46.362031 +22 13 41.86085
 2018-Aug-22 15:42 C   05 26 46.416577 +22 13 41.86296
 2018-Aug-22 15:43 C   05 26 46.471121 +22 13 41.86506
 2018-Aug-22 15:44 C   05 26 46.525663 +22 13 41.86714
 2018-Aug-22 15:45 C   05 26 46.580202 +22 13 41.86920
 2018-Aug-22 15:46 C   05 26 46.634740 +22 13 41.87124
 2018-Aug-22 15:47 C   05 26 46.689275 +22 13 41.87327
 2018-Aug-22 15:48 C   05 26 46.743809 +22 13 41.87527
 2018-Aug-22 15:49 C   05 26 46.798340 +22 13 41.87726
 2018-Aug-22 15:50 C   05 26 46.852869 +22 13 41.87922
 2018-Aug-22 15:51 C   05 26 46.907396 +22 13 41.88117
 2018-Aug-22 15:52 C   05 26 46.961921 +22 13 41.88310
 2018-Aug-22 15:53 C   05 26 47.016444 +22 13 41.88502
 2018-Aug-22 15:54 C   05 26 47.070966 +22 13 41.88691
